CCSDS_OMM_VERS = 2.0
CREATION_DATE  = 
ORIGINATOR     = 

OBJECT_NAME    = STARLINK-36734
OBJECT_ID      = 2026-039C
CENTER_NAME    = EARTH
REF_FRAME      = TEME
TIME_SYSTEM    = UTC
MEAN_ELEMENT_THEORY = SGP/SGP4

EPOCH          = 2026-03-15T14:00:01.999872
MEAN_MOTION    = 15.61126803
ECCENTRICITY   = .00016754
INCLINATION    = 43.0002
RA_OF_ASC_NODE = 19.2650
ARG_OF_PERICENTER = 258.3812
MEAN_ANOMALY   = 94.1474

EPHEMERIS_TYPE = 0
CLASSIFICATION_TYPE = U
NORAD_CAT_ID   = 67988
ELEMENT_SET_NO = 999
REV_AT_EPOCH   = 382
BSTAR          = -.25338135E-1
MEAN_MOTION_DOT = -.193892E-1
MEAN_MOTION_DDOT = 0

CCSDS_OMM_VERS = 2.0
CREATION_DATE  = 
ORIGINATOR     = 

OBJECT_NAME    = STARLINK-36957
OBJECT_ID      = 2026-039D
CENTER_NAME    = EARTH
REF_FRAME      = TEME
TIME_SYSTEM    = UTC
MEAN_ELEMENT_THEORY = SGP/SGP4

EPOCH          = 2026-03-14T17:31:29.704224
MEAN_MOTION    = 15.82079172
ECCENTRICITY   = .00053353
INCLINATION    = 42.9989
RA_OF_ASC_NODE = 24.0143
ARG_OF_PERICENTER = 227.1708
MEAN_ANOMALY   = 132.8716

EPHEMERIS_TYPE = 0
CLASSIFICATION_TYPE = U
NORAD_CAT_ID   = 67989
ELEMENT_SET_NO = 999
REV_AT_EPOCH   = 243
BSTAR          = .2081936E-2
MEAN_MOTION_DOT = .46368E-2
MEAN_MOTION_DDOT = 0

CCSDS_OMM_VERS = 2.0
CREATION_DATE  = 
ORIGINATOR     = 

OBJECT_NAME    = STARLINK-36951
OBJECT_ID      = 2026-039E
CENTER_NAME    = EARTH
REF_FRAME      = TEME
TIME_SYSTEM    = UTC
MEAN_ELEMENT_THEORY = SGP/SGP4

EPOCH          = 2026-03-15T14:00:01.999872
MEAN_MOTION    = 15.73807750
ECCENTRICITY   = .00013791
INCLINATION    = 42.9997
RA_OF_ASC_NODE = 18.8470
ARG_OF_PERICENTER = 264.1643
MEAN_ANOMALY   = 255.8517

EPHEMERIS_TYPE = 0
CLASSIFICATION_TYPE = U
NORAD_CAT_ID   = 67990
ELEMENT_SET_NO = 999
REV_AT_EPOCH   = 382
BSTAR          = -.15490707E-1
MEAN_MOTION_DOT = -.1992987E-1
MEAN_MOTION_DDOT = 0

CCSDS_OMM_VERS = 2.0
CREATION_DATE  = 
ORIGINATOR     = 

OBJECT_NAME    = STARLINK-36941
OBJECT_ID      = 2026-039F
CENTER_NAME    = EARTH
REF_FRAME      = TEME
TIME_SYSTEM    = UTC
MEAN_ELEMENT_THEORY = SGP/SGP4

EPOCH          = 2026-03-15T14:00:01.999872
MEAN_MOTION    = 15.60772649
ECCENTRICITY   = .00017938
INCLINATION    = 42.9998
RA_OF_ASC_NODE = 19.2469
ARG_OF_PERICENTER = 257.5265
MEAN_ANOMALY   = 101.5256

EPHEMERIS_TYPE = 0
CLASSIFICATION_TYPE = U
NORAD_CAT_ID   = 67991
ELEMENT_SET_NO = 999
REV_AT_EPOCH   = 382
BSTAR          = -.2551408E-1
MEAN_MOTION_DOT = -.1927256E-1
MEAN_MOTION_DDOT = 0

CCSDS_OMM_VERS = 2.0
CREATION_DATE  = 
ORIGINATOR     = 

OBJECT_NAME    = STARLINK-36950
OBJECT_ID      = 2026-039G
CENTER_NAME    = EARTH
REF_FRAME      = TEME
TIME_SYSTEM    = UTC
MEAN_ELEMENT_THEORY = SGP/SGP4

EPOCH          = 2026-03-15T14:00:01.999872
MEAN_MOTION    = 15.66250628
ECCENTRICITY   = .00014279
INCLINATION    = 42.9998
RA_OF_ASC_NODE = 19.0190
ARG_OF_PERICENTER = 266.9570
MEAN_ANOMALY   = 183.8533

EPHEMERIS_TYPE = 0
CLASSIFICATION_TYPE = U
NORAD_CAT_ID   = 67992
ELEMENT_SET_NO = 999
REV_AT_EPOCH   = 382
BSTAR          = -.20729695E-1
MEAN_MOTION_DOT = -.1945231E-1
MEAN_MOTION_DDOT = 0

CCSDS_OMM_VERS = 2.0
CREATION_DATE  = 
ORIGINATOR     = 

OBJECT_NAME    = STARLINK-36975
OBJECT_ID      = 2026-039H
CENTER_NAME    = EARTH
REF_FRAME      = TEME
TIME_SYSTEM    = UTC
MEAN_ELEMENT_THEORY = SGP/SGP4

EPOCH          = 2026-03-15T14:00:01.999872
MEAN_MOTION    = 15.67577024
ECCENTRICITY   = .00013442
INCLINATION    = 42.9995
RA_OF_ASC_NODE = 18.9663
ARG_OF_PERICENTER = 268.2855
MEAN_ANOMALY   = 203.5996

EPHEMERIS_TYPE = 0
CLASSIFICATION_TYPE = U
NORAD_CAT_ID   = 67993
ELEMENT_SET_NO = 999
REV_AT_EPOCH   = 382
BSTAR          = -.20020673E-1
MEAN_MOTION_DOT = -.1979104E-1
MEAN_MOTION_DDOT = 0

CCSDS_OMM_VERS = 2.0
CREATION_DATE  = 
ORIGINATOR     = 

OBJECT_NAME    = STARLINK-36993
OBJECT_ID      = 2026-039J
CENTER_NAME    = EARTH
REF_FRAME      = TEME
TIME_SYSTEM    = UTC
MEAN_ELEMENT_THEORY = SGP/SGP4

EPOCH          = 2026-03-15T14:00:01.999872
MEAN_MOTION    = 15.78012614
ECCENTRICITY   = .00014883
INCLINATION    = 42.9998
RA_OF_ASC_NODE = 18.7480
ARG_OF_PERICENTER = 258.9846
MEAN_ANOMALY   = 300.3868

EPHEMERIS_TYPE = 0
CLASSIFICATION_TYPE = U
NORAD_CAT_ID   = 67994
ELEMENT_SET_NO = 999
REV_AT_EPOCH   = 382
BSTAR          = -.12860002E-1
MEAN_MOTION_DOT = -.1954659E-1
MEAN_MOTION_DDOT = 0

CCSDS_OMM_VERS = 2.0
CREATION_DATE  = 
ORIGINATOR     = 

OBJECT_NAME    = STARLINK-36968
OBJECT_ID      = 2026-039K
CENTER_NAME    = EARTH
REF_FRAME      = TEME
TIME_SYSTEM    = UTC
MEAN_ELEMENT_THEORY = SGP/SGP4

EPOCH          = 2026-03-15T14:00:01.999872
MEAN_MOTION    = 15.64104858
ECCENTRICITY   = .00015342
INCLINATION    = 42.9998
RA_OF_ASC_NODE = 19.0545
ARG_OF_PERICENTER = 265.2973
MEAN_ANOMALY   = 170.9475

EPHEMERIS_TYPE = 0
CLASSIFICATION_TYPE = U
NORAD_CAT_ID   = 67995
ELEMENT_SET_NO = 999
REV_AT_EPOCH   = 382
BSTAR          = -.2301418E-1
MEAN_MOTION_DOT = -.1976062E-1
MEAN_MOTION_DDOT = 0

CCSDS_OMM_VERS = 2.0
CREATION_DATE  = 
ORIGINATOR     = 

OBJECT_NAME    = STARLINK-36979
OBJECT_ID      = 2026-039L
CENTER_NAME    = EARTH
REF_FRAME      = TEME
TIME_SYSTEM    = UTC
MEAN_ELEMENT_THEORY = SGP/SGP4

EPOCH          = 2026-03-14T23:28:37.616160
MEAN_MOTION    = 15.82043667
ECCENTRICITY   = .00021657
INCLINATION    = 42.9991
RA_OF_ASC_NODE = 22.4301
ARG_OF_PERICENTER = 291.0763
MEAN_ANOMALY   = 68.9877

EPHEMERIS_TYPE = 0
CLASSIFICATION_TYPE = U
NORAD_CAT_ID   = 67996
ELEMENT_SET_NO = 999
REV_AT_EPOCH   = 247
BSTAR          = .94174817E-3
MEAN_MOTION_DOT = .202745E-2
MEAN_MOTION_DDOT = 0

CCSDS_OMM_VERS = 2.0
CREATION_DATE  = 
ORIGINATOR     = 

OBJECT_NAME    = STARLINK-36994
OBJECT_ID      = 2026-039M
CENTER_NAME    = EARTH
REF_FRAME      = TEME
TIME_SYSTEM    = UTC
MEAN_ELEMENT_THEORY = SGP/SGP4

EPOCH          = 2026-03-15T14:00:01.999872
MEAN_MOTION    = 15.73675511
ECCENTRICITY   = .00011873
INCLINATION    = 42.9998
RA_OF_ASC_NODE = 18.7619
ARG_OF_PERICENTER = 259.8950
MEAN_ANOMALY   = 293.4076

EPHEMERIS_TYPE = 0
CLASSIFICATION_TYPE = U
NORAD_CAT_ID   = 67997
ELEMENT_SET_NO = 999
REV_AT_EPOCH   = 382
BSTAR          = -.15516235E-1
MEAN_MOTION_DOT = -.1985589E-1
MEAN_MOTION_DDOT = 0

CCSDS_OMM_VERS = 2.0
CREATION_DATE  = 
ORIGINATOR     = 

OBJECT_NAME    = STARLINK-36988
OBJECT_ID      = 2026-039N
CENTER_NAME    = EARTH
REF_FRAME      = TEME
TIME_SYSTEM    = UTC
MEAN_ELEMENT_THEORY = SGP/SGP4

EPOCH          = 2026-03-15T14:00:01.999872
MEAN_MOTION    = 15.74716311
ECCENTRICITY   = .00013801
INCLINATION    = 43.0000
RA_OF_ASC_NODE = 18.7553
ARG_OF_PERICENTER = 260.1327
MEAN_ANOMALY   = 295.8979

EPHEMERIS_TYPE = 0
CLASSIFICATION_TYPE = U
NORAD_CAT_ID   = 67998
ELEMENT_SET_NO = 999
REV_AT_EPOCH   = 382
BSTAR          = -.1488835E-1
MEAN_MOTION_DOT = -.1993297E-1
MEAN_MOTION_DDOT = 0

CCSDS_OMM_VERS = 2.0
CREATION_DATE  = 
ORIGINATOR     = 

OBJECT_NAME    = STARLINK-36926
OBJECT_ID      = 2026-039P
CENTER_NAME    = EARTH
REF_FRAME      = TEME
TIME_SYSTEM    = UTC
MEAN_ELEMENT_THEORY = SGP/SGP4

EPOCH          = 2026-03-15T14:00:01.999872
MEAN_MOTION    = 15.73863514
ECCENTRICITY   = .00013332
INCLINATION    = 42.9997
RA_OF_ASC_NODE = 18.7479
ARG_OF_PERICENTER = 263.8517
MEAN_ANOMALY   = 295.0539

EPHEMERIS_TYPE = 0
CLASSIFICATION_TYPE = U
NORAD_CAT_ID   = 67999
ELEMENT_SET_NO = 999
REV_AT_EPOCH   = 382
BSTAR          = -.15382854E-1
MEAN_MOTION_DOT = -.1984957E-1
MEAN_MOTION_DDOT = 0

