STARLINK-36734          
1 67988U 26039C   26074.58335648 -.01938920  00000+0 -25338-1 0  9994
2 67988  43.0002  19.2650 0001675 258.3812  94.1474 15.61126803  3825
STARLINK-36957          
1 67989U 26039D   26073.73020491  .00463680  00000+0  20819-2 0  9991
2 67989  42.9989  24.0143 0005335 227.1708 132.8716 15.82079172  2438
STARLINK-36951          
1 67990U 26039E   26074.58335648 -.01992987  00000+0 -15491-1 0  9999
2 67990  42.9997  18.8470 0001379 264.1643 255.8517 15.73807750  3826
STARLINK-36941          
1 67991U 26039F   26074.58335648 -.01927256  00000+0 -25514-1 0  9994
2 67991  42.9998  19.2469 0001793 257.5265 101.5256 15.60772649  3828
STARLINK-36950          
1 67992U 26039G   26074.58335648 -.01945231  00000+0 -20730-1 0  9993
2 67992  42.9998  19.0190 0001427 266.9570 183.8533 15.66250628  3820
STARLINK-36975          
1 67993U 26039H   26074.58335648 -.01979104  00000+0 -20021-1 0  9993
2 67993  42.9995  18.9663 0001344 268.2855 203.5996 15.67577024  3826
STARLINK-36993          
1 67994U 26039J   26074.58335648 -.01954659  00000+0 -12860-1 0  9994
2 67994  42.9998  18.7480 0001488 258.9846 300.3868 15.78012614  3825
STARLINK-36968          
1 67995U 26039K   26074.58335648 -.01976062  00000+0 -23014-1 0  9990
2 67995  42.9998  19.0545 0001534 265.2973 170.9475 15.64104858  3828
STARLINK-36979          
1 67996U 26039L   26073.97821315  .00202745  00000+0  94175-3 0  9999
2 67996  42.9991  22.4301 0002165 291.0763  68.9877 15.82043667  2477
STARLINK-36994          
1 67997U 26039M   26074.58335648 -.01985589  00000+0 -15516-1 0  9994
2 67997  42.9998  18.7619 0001187 259.8950 293.4076 15.73675511  3823
STARLINK-36988          
1 67998U 26039N   26074.58335648 -.01993297  00000+0 -14888-1 0  9991
2 67998  43.0000  18.7553 0001380 260.1327 295.8979 15.74716311  3828
STARLINK-36926          
1 67999U 26039P   26074.58335648 -.01984957  00000+0 -15383-1 0  9996
2 67999  42.9997  18.7479 0001333 263.8517 295.0539 15.73863514  3829
